NORAD_CAT_ID,OBJECT_NAME,OBJECT_TYPE,EPOCH,MEAN_MOTION,ECCENTRICITY,INCLINATION,RA_OF_ASC_NODE,ARG_OF_PERICENTER,MEAN_ANOMALY,BSTAR,MEAN_MOTION_DOT,MEAN_MOTION_DDOT,TLE_LINE0,TLE_LINE1,TLE_LINE2,SEMIMAJOR_AXIS,PERIOD,APOGEE,PERIGEE,DECAYED
55755.0,STARLINK-5619,PAYLOAD,2024-03-30 13:29:17,14.98333602,0.0002793,70.0,232.2495,271.3231,88.7609,-3.1734e-05,-4.72e-06,0.0,0 STARLINK-5619,1 55755U 23028Q   24090.56201062 -.00000472  00000-0 -31734-4 0  9996,2 55755  70.0000 232.2495 0002793 271.3231  88.7609 14.98333602 59824,6950.182,96.107,573.988,570.106,0.0
55755.0,STARLINK-5619,PAYLOAD,2024-03-30 19:53:49,14.98336373,0.000268,70.0002,231.5761,271.4165,88.6686,1.4074e-05,7.5e-07,0.0,0 STARLINK-5619,1 55755U 23028Q   24090.82904749  .00000075  00000-0  14074-4 0  9992,2 55755  70.0002 231.5761 0002680 271.4165  88.6686 14.98336373 59862,6950.173,96.107,573.901,570.176,0.0
55755.0,STARLINK-5619,PAYLOAD,2024-03-31 02:18:22,14.98331926,0.0002625,70.0002,230.9023,275.0111,85.0748,1.9366e-05,1.38e-06,0.0,0 STARLINK-5619,1 55755U 23028Q   24091.09608966  .00000138  00000-0  19366-4 0  9993,2 55755  70.0002 230.9023 0002625 275.0111  85.0748 14.98331926 59900,6950.187,96.107,573.876,570.228,0.0
55755.0,STARLINK-5619,PAYLOAD,2024-03-31 15:07:26,14.98328488,0.0002669,70.0004,229.557,268.0513,92.034,4.5442e-05,4.49e-06,0.0,0 STARLINK-5619,1 55755U 23028Q   24091.63017009  .00000449  00000-0  45442-4 0  9994,2 55755  70.0004 229.5570 0002669 268.0513  92.0340 14.98328488 59982,6950.198,96.107,573.918,570.208,0.0
55755.0,STARLINK-5619,PAYLOAD,2024-03-31 18:19:42,14.98329224,0.0002672,70.0006,229.2205,268.2415,91.8438,5.2333e-05,5.32e-06,0.0,0 STARLINK-5619,1 55755U 23028Q   24091.76368960  .00000532  00000-0  52333-4 0  9993,2 55755  70.0006 229.2205 0002672 268.2415  91.8438 14.98329224 60002,6950.195,96.107,573.917,570.203,0.0
55755.0,STARLINK-5619,PAYLOAD,2024-04-01 02:20:23,14.98327168,0.0002635,70.0005,228.3789,270.5843,89.5014,-2.381e-05,-3.77e-06,0.0,0 STARLINK-5619,1 55755U 23028Q   24092.09749369 -.00000377  00000-0 -23810-4 0  9993,2 55755  70.0005 228.3789 0002635 270.5843  89.5014 14.98327168 60052,6950.202,96.107,573.898,570.235,0.0
55755.0,STARLINK-5619,PAYLOAD,2024-04-01 15:09:27,14.98325638,0.0002515,70.0003,227.0324,268.2135,91.8736,0.00015247,1.727e-05,0.0,0 STARLINK-5619,1 55755U 23028Q   24092.63157020  .00001727  00000-0  15247-3 0  9992,2 55755  70.0003 227.0324 0002515 268.2135  91.8736 14.98325638 60132,6950.206,96.107,573.819,570.323,0.0
55755.0,STARLINK-5619,PAYLOAD,2024-04-02 02:22:24,14.98327213,0.0002821,70.0006,225.8539,270.1007,89.9829,3.3773e-05,3.1e-06,0.0,0 STARLINK-5619,1 55755U 23028Q   24093.09889198  .00000310  00000-0  33773-4 0  9993,2 55755  70.0006 225.8539 0002821 270.1007  89.9829 14.98327213 60209,6950.202,96.107,574.027,570.106,0.0
55755.0,STARLINK-5619,PAYLOAD,2024-04-02 15:11:28,14.98327819,0.0003063,70.0006,224.5069,268.1435,91.9374,0.00015375,1.742e-05,0.0,0 STARLINK-5619,1 55755U 23028Q   24093.63296821  .00001742  00000-0  15375-3 0  9995,2 55755  70.0006 224.5069 0003063 268.1435  91.9374 14.98327819 60282,6950.2,96.107,574.193,569.936,0.0
55755.0,STARLINK-5619,PAYLOAD,2024-04-02 18:23:44,14.98329795,0.0003003,70.0007,224.1702,267.9349,92.1466,5.8036e-05,6e-06,0.0,0 STARLINK-5619,1 55755U 23028Q   24093.76648937  .00000600  00000-0  58036-4 0  9992,2 55755  70.0007 224.1702 0003003 267.9349  92.1466 14.98329795 60301,6950.194,96.107,574.146,569.971,0.0
55755.0,STARLINK-5619,PAYLOAD,2024-04-03 02:24:24,14.98330097,0.0003048,70.0007,223.3284,268.321,91.76,5.9295e-05,6.15e-06,0.0,0 STARLINK-5619,1 55755U 23028Q   24094.10028859  .00000615  00000-0  59295-4 0  9990,2 55755  70.0007 223.3284 0003048 268.3210  91.7600 14.98330097 60355,6950.193,96.107,574.176,569.939,0.0
55755.0,STARLINK-5619,PAYLOAD,2024-04-03 15:13:29,14.98334732,0.0003067,70.0005,221.9822,268.6865,91.3943,6.5433e-05,6.88e-06,0.0,0 STARLINK-5619,1 55755U 23028Q   24094.63436517  .00000688  00000-0  65433-4 0  9993,2 55755  70.0005 221.9822 0003067 268.6865  91.3943 14.98334732 60430,6950.178,96.107,574.175,569.912,0.0
55755.0,STARLINK-5619,PAYLOAD,2024-04-03 18:25:45,14.9833483,0.0003079,70.0005,221.6456,268.8679,91.2128,6.4436e-05,6.76e-06,0.0,0 STARLINK-5619,1 55755U 23028Q   24094.76788481  .00000676  00000-0  64436-4 0  9996,2 55755  70.0005 221.6456 0003079 268.8679  91.2128 14.98334830 60453,6950.178,96.107,574.183,569.903,0.0
55755.0,STARLINK-5619,PAYLOAD,2024-04-04 12:03:14,14.98334537,0.0003002,70.0006,219.7943,270.1436,89.9379,-0.00018132,-2.256e-05,0.0,0 STARLINK-5619,1 55755U 23028Q   24095.50225104 -.00002256  00000-0 -18132-3 0  9996,2 55755  70.0006 219.7943 0003002 270.1436  89.9379 14.98334537 60564,6950.179,96.107,574.13,569.957,0.0
55755.0,STARLINK-5619,PAYLOAD,2024-04-04 15:15:30,14.98329416,0.0003049,70.0007,219.4577,267.7048,92.3762,9.2913e-06,1.8e-07,0.0,0 STARLINK-5619,1 55755U 23028Q   24095.63576969  .00000018  00000-0  92913-5 0  9991,2 55755  70.0007 219.4577 0003049 267.7048  92.3762 14.98329416 60583,6950.195,96.107,574.179,569.941,0.0
55755.0,STARLINK-5619,PAYLOAD,2024-04-04 18:27:46,14.98331581,0.0003111,70.0006,219.1211,269.1641,90.9161,-3.9053e-06,-1.4e-06,0.0,0 STARLINK-5619,1 55755U 23028Q   24095.76928853 -.00000140  00000-0 -39053-5 0  9992,2 55755  70.0006 219.1211 0003111 269.1641  90.9161 14.98331581 60605,6950.188,96.107,574.215,569.891,0.0
55755.0,STARLINK-5619,PAYLOAD,2024-04-05 12:05:14,14.98339678,0.0003078,70.0007,217.2696,270.4498,89.6309,9.7257e-05,1.068e-05,0.0,0 STARLINK-5619,1 55755U 23028Q   24096.50363857  .00001068  00000-0  97257-4 0  9999,2 55755  70.0007 217.2696 0003078 270.4498  89.6309 14.98339678 60715,6950.163,96.106,574.167,569.889,0.0
55755.0,STARLINK-5619,PAYLOAD,2024-04-05 16:53:38,14.98342725,0.0003053,70.0008,216.7649,269.9961,90.0849,0.00011399,1.268e-05,0.0,0 STARLINK-5619,1 55755U 23028Q   24096.70391487  .00001268  00000-0  11399-3 0  9995,2 55755  70.0008 216.7649 0003053 269.9961  90.0849 14.98342725 60744,6950.154,96.106,574.14,569.897,0.0
55755.0,STARLINK-5619,PAYLOAD,2024-04-06 13:43:24,14.98325122,0.0002957,70.0011,214.5773,269.1928,90.8892,-1.7811e-05,-3.05e-06,0.0,0 STARLINK-5619,1 55755U 23028Q   24097.57180810 -.00000305  00000-0 -17811-4 0  9996,2 55755  70.0011 214.5773 0002957 269.1928  90.8892 14.98325122 60871,6950.208,96.107,574.128,570.018,0.0
55755.0,STARLINK-5619,PAYLOAD,2024-04-07 13:45:25,14.98328912,0.0002805,70.0014,212.053,267.2305,92.8533,-0.00012262,-1.556e-05,0.0,0 STARLINK-5619,1 55755U 23028Q   24098.57321044 -.00001556  00000-0 -12262-3 0  9996,2 55755  70.0014 212.0530 0002805 267.2305  92.8533 14.98328912 61020,6950.196,96.107,574.011,570.112,0.0
55755.0,STARLINK-5619,PAYLOAD,2024-04-08 10:35:09,14.98329859,0.000312,70.0004,209.8642,269.3275,90.7527,0.00014101,1.59e-05,0.0,0 STARLINK-5619,1 55755U 23028Q   24099.44108324  .00001590  00000-0  14101-3 0  9997,2 55755  70.0004 209.8642 0003120 269.3275  90.7527 14.98329859 61152,6950.193,96.107,574.227,569.89,0.0
55755.0,STARLINK-5619,PAYLOAD,2024-04-08 13:47:25,14.98333943,0.0003138,69.9998,209.5275,269.2195,90.8605,0.00013239,1.487e-05,0.0,0 STARLINK-5619,1 55755U 23028Q   24099.57460098  .00001487  00000-0  13239-3 0  9996,2 55755  69.9998 209.5275 0003138 269.2195  90.8605 14.98333943 61178,6950.181,96.107,574.227,569.865,0.0
55755.0,STARLINK-5619,PAYLOAD,2024-04-09 10:37:10,14.98326031,0.0003166,70.0007,207.3398,268.8628,91.2168,0.00010216,1.126e-05,0.0,0 STARLINK-5619,1 55755U 23028Q   24100.44248709  .00001126  00000-0  10216-3 0  9990,2 55755  70.0007 207.3398 0003166 268.8628  91.2168 14.98326031 61305,6950.205,96.107,574.271,569.87,0.0
55755.0,STARLINK-5619,PAYLOAD,2024-04-09 13:49:26,14.98331153,0.0003232,70.0002,207.0024,267.9066,92.1723,0.0001078,1.193e-05,0.0,0 STARLINK-5619,1 55755U 23028Q   24100.57600381  .00001193  00000-0  10780-3 0  9992,2 55755  70.0002 207.0024 0003232 267.9066  92.1723 14.98331153 61323,6950.189,96.107,574.301,569.808,0.0
55755.0,STARLINK-5619,PAYLOAD,2024-04-10 10:39:11,14.98339809,0.0003101,70.0006,204.8146,267.2883,92.7921,2.8137e-05,2.43e-06,0.0,0 STARLINK-5619,1 55755U 23028Q   24101.44387778  .00000243  00000-0  28137-4 0  9992,2 55755  70.0006 204.8146 0003101 267.2883  92.7921 14.98339809 61458,6950.163,96.106,574.183,569.872,0.0
55755.0,STARLINK-5619,PAYLOAD,2024-04-10 13:51:26,14.98343568,0.000308,70.0005,204.4781,266.9955,93.0851,7.6413e-05,8.19e-06,0.0,0 STARLINK-5619,1 55755U 23028Q   24101.57739304  .00000819  00000-0  76413-4 0  9991,2 55755  70.0005 204.4781 0003080 266.9955  93.0851 14.98343568 61475,6950.151,96.106,574.157,569.875,0.0
55755.0,STARLINK-5619,PAYLOAD,2024-04-10 17:03:42,14.98343183,0.0003107,70.0005,204.1416,267.1899,92.8905,7.0646e-05,7.5e-06,0.0,0 STARLINK-5619,1 55755U 23028Q   24101.71091239  .00000750  00000-0  70646-4 0  9991,2 55755  70.0005 204.1416 0003107 267.1899  92.8905 14.98343183 61499,6950.152,96.106,574.177,569.858,0.0
55755.0,STARLINK-5619,PAYLOAD,2024-04-11 12:17:21,14.98293493,0.0003072,70.0013,202.1231,262.5835,97.4975,0.00051685,6.074e-05,0.0,0 STARLINK-5619,1 55755U 23028Q   24102.51205468  .00006074  00000-0  51685-3 0  9997,2 55755  70.0013 202.1231 0003072 262.5835  97.4975 14.98293493 61611,6950.306,96.109,574.306,570.036,0.0
55755.0,STARLINK-5619,PAYLOAD,2024-04-11 13:53:28,14.98324478,0.0002902,70.0014,201.9548,264.2103,95.8725,-7.2408e-05,-9.57e-06,0.0,0 STARLINK-5619,1 55755U 23028Q   24102.57880765 -.00000957  00000-0 -72408-4 0  9995,2 55755  70.0014 201.9548 0002902 264.2103  95.8725 14.98324478 61622,6950.21,96.107,574.092,570.058,0.0
55755.0,STARLINK-5619,PAYLOAD,2024-04-11 17:05:45,14.98318567,0.0002917,70.0017,201.6203,260.2183,99.8647,3.3012e-05,3.01e-06,0.0,0 STARLINK-5619,1 55755U 23028Q   24102.71232931  .00000301  00000-0  33012-4 0  9996,2 55755  70.0017 201.6203 0002917 260.2183  99.8647 14.98318567 61641,6950.228,96.108,574.121,570.066,0.0
